{
  "type": "FeatureCollection",
  "features": [
    {
      "type": "Feature",
      "properties": {
        "norad_id": 66520,
        "name": "STARLINK-35952",
        "group": "last-30-days",
        "lat": -9.234631504250912,
        "lon": -55.54410765806263,
        "alt_km": 345.60823481364696,
        "timestamp": "2025-12-02T13:52:16.065566+00:00",
        "meta_object_name": "STARLINK-35952",
        "meta_object_id": "2025-265E",
        "meta_epoch": "2025-12-02T06:00:02.999808",
        "meta_mean_motion": 15.75150316,
        "meta_eccentricity": 0.00014901,
        "meta_inclination": 42.9992,
        "meta_ra_of_asc_node": 116.3974,
        "meta_arg_of_pericenter": 283.9467,
        "meta_mean_anomaly": 207.8882,
        "meta_ephemeris_type": 0,
        "meta_classification_type": "U",
        "meta_norad_cat_id": 66520,
        "meta_element_set_no": 999,
        "meta_rev_at_epoch": 330,
        "meta_bstar": -0.001659597,
        "meta_mean_motion_dot": -0.00249237,
        "meta_mean_motion_ddot": 0,
        "tle_line1": "1 66520U 25265E   25336.25003472 -.00249237  00000+0 -16596-2 0  9998",
        "tle_line2": "2 66520  42.9992 116.3974 0001490 283.9467 207.8882 15.75150316  3305"
      },
      "geometry": {
        "type": "Point",
        "coordinates": [
          -55.54410765806263,
          -9.234631504250912
        ]
      }
    },
    {
      "type": "Feature",
      "properties": {
        "norad_id": 66521,
        "name": "STARLINK-35915",
        "group": "last-30-days",
        "lat": -10.540317057096445,
        "lon": -54.079221032800824,
        "alt_km": 345.5931247172175,
        "timestamp": "2025-12-02T13:52:16.065578+00:00",
        "meta_object_name": "STARLINK-35915",
        "meta_object_id": "2025-265F",
        "meta_epoch": "2025-12-02T06:00:02.999808",
        "meta_mean_motion": 15.7516919,
        "meta_eccentricity": 0.00015197,
        "meta_inclination": 42.9991,
        "meta_ra_of_asc_node": 116.3924,
        "meta_arg_of_pericenter": 277.1692,
        "meta_mean_anomaly": 216.6059,
        "meta_ephemeris_type": 0,
        "meta_classification_type": "U",
        "meta_norad_cat_id": 66521,
        "meta_element_set_no": 999,
        "meta_rev_at_epoch": 330,
        "meta_bstar": -0.0018581885,
        "meta_mean_motion_dot": -0.0027829,
        "meta_mean_motion_ddot": 0,
        "tle_line1": "1 66521U 25265F   25336.25003472 -.00278290  00000+0 -18582-2 0  9997",
        "tle_line2": "2 66521  42.9991 116.3924 0001519 277.1692 216.6059 15.75169190  3301"
      },
      "geometry": {
        "type": "Point",
        "coordinates": [
          -54.079221032800824,
          -10.540317057096445
        ]
      }
    },
    {
      "type": "Feature",
      "properties": {
        "norad_id": 66522,
        "name": "STARLINK-35946",
        "group": "last-30-days",
        "lat": -11.769222132623261,
        "lon": -52.681854440486745,
        "alt_km": 345.36834774351973,
        "timestamp": "2025-12-02T13:52:16.065589+00:00",
        "meta_object_name": "STARLINK-35946",
        "meta_object_id": "2025-265G",
        "meta_epoch": "2025-12-02T06:00:02.999808",
        "meta_mean_motion": 15.75008937,
        "meta_eccentricity": 0.00016585,
        "meta_inclination": 42.999,
        "meta_ra_of_asc_node": 116.3876,
        "meta_arg_of_pericenter": 269.3438,
        "meta_mean_anomaly": 226.3351,
        "meta_ephemeris_type": 0,
        "meta_classification_type": "U",
        "meta_norad_cat_id": 66522,
        "meta_element_set_no": 999,
        "meta_rev_at_epoch": 330,
        "meta_bstar": 0.00034480811,
        "meta_mean_motion_dot": 0.0005275,
        "meta_mean_motion_ddot": 0,
        "tle_line1": "1 66522U 25265G   25336.25003472  .00052750  00000+0  34481-3 0  9994",
        "tle_line2": "2 66522  42.9990 116.3876 0001658 269.3438 226.3351 15.75008937  3306"
      },
      "geometry": {
        "type": "Point",
        "coordinates": [
          -52.681854440486745,
          -11.769222132623261
        ]
      }
    },
    {
      "type": "Feature",
      "properties": {
        "norad_id": 66523,
        "name": "STARLINK-35969",
        "group": "last-30-days",
        "lat": -13.040745878952746,
        "lon": -51.21455504820466,
        "alt_km": 345.51101397890307,
        "timestamp": "2025-12-02T13:52:16.065601+00:00",
        "meta_object_name": "STARLINK-35969",
        "meta_object_id": "2025-265H",
        "meta_epoch": "2025-12-02T06:00:02.999808",
        "meta_mean_motion": 15.75038305,
        "meta_eccentricity": 0.00015442,
        "meta_inclination": 42.9994,
        "meta_ra_of_asc_node": 116.3828,
        "meta_arg_of_pericenter": 271.2176,
        "meta_mean_anomaly": 226.3615,
        "meta_ephemeris_type": 0,
        "meta_classification_type": "U",
        "meta_norad_cat_id": 66523,
        "meta_element_set_no": 999,
        "meta_rev_at_epoch": 330,
        "meta_bstar": 7.5027488e-05,
        "meta_mean_motion_dot": 0.00011062,
        "meta_mean_motion_ddot": 0,
        "tle_line1": "1 66523U 25265H   25336.25003472  .00011062  00000+0  75027-4 0  9998",
        "tle_line2": "2 66523  42.9994 116.3828 0001544 271.2176 226.3615 15.75038305  3308"
      },
      "geometry": {
        "type": "Point",
        "coordinates": [
          -51.21455504820466,
          -13.040745878952746
        ]
      }
    },
    {
      "type": "Feature",
      "properties": {
        "norad_id": 66524,
        "name": "STARLINK-35687",
        "group": "last-30-days",
        "lat": -14.299053235333911,
        "lon": -49.737819051338235,
        "alt_km": 345.5309543034127,
        "timestamp": "2025-12-02T13:52:16.065611+00:00",
        "meta_object_name": "STARLINK-35687",
        "meta_object_id": "2025-265J",
        "meta_epoch": "2025-12-02T06:00:02.999808",
        "meta_mean_motion": 15.75027134,
        "meta_eccentricity": 0.00017468,
        "meta_inclination": 42.9993,
        "meta_ra_of_asc_node": 116.3777,
        "meta_arg_of_pericenter": 268.9815,
        "meta_mean_anomaly": 230.5211,
        "meta_ephemeris_type": 0,
        "meta_classification_type": "U",
        "meta_norad_cat_id": 66524,
        "meta_element_set_no": 999,
        "meta_rev_at_epoch": 330,
        "meta_bstar": 0.00015039529,
        "meta_mean_motion_dot": 0.00022675,
        "meta_mean_motion_ddot": 0,
        "tle_line1": "1 66524U 25265J   25336.25003472  .00022675  00000+0  15040-3 0  9999",
        "tle_line2": "2 66524  42.9993 116.3777 0001746 268.9815 230.5211 15.75027134  3305"
      },
      "geometry": {
        "type": "Point",
        "coordinates": [
          -49.737819051338235,
          -14.299053235333911
        ]
      }
    },
    {
      "type": "Feature",
      "properties": {
        "norad_id": 66525,
        "name": "STARLINK-35975",
        "group": "last-30-days",
        "lat": -15.55304747047865,
        "lon": -48.237822027107505,
        "alt_km": 345.52199337900674,
        "timestamp": "2025-12-02T13:52:16.065621+00:00",
        "meta_object_name": "STARLINK-35975",
        "meta_object_id": "2025-265K",
        "meta_epoch": "2025-12-02T06:00:02.999808",
        "meta_mean_motion": 15.75032258,
        "meta_eccentricity": 0.00015922,
        "meta_inclination": 42.9993,
        "meta_ra_of_asc_node": 116.3733,
        "meta_arg_of_pericenter": 260.236,
        "meta_mean_anomaly": 241.1841,
        "meta_ephemeris_type": 0,
        "meta_classification_type": "U",
        "meta_norad_cat_id": 66525,
        "meta_element_set_no": 999,
        "meta_rev_at_epoch": 330,
        "meta_bstar": 5.0433764e-05,
        "meta_mean_motion_dot": 7.274e-05,
        "meta_mean_motion_ddot": 0,
        "tle_line1": "1 66525U 25265K   25336.25003472  .00007274  00000+0  50434-4 0  9995",
        "tle_line2": "2 66525  42.9993 116.3733 0001592 260.2360 241.1841 15.75032258  3307"
      },
      "geometry": {
        "type": "Point",
        "coordinates": [
          -48.237822027107505,
          -15.55304747047865
        ]
      }
    },
    {
      "type": "Feature",
      "properties": {
        "norad_id": 66526,
        "name": "STARLINK-35932",
        "group": "last-30-days",
        "lat": -16.78903055489223,
        "lon": -46.72934030935558,
        "alt_km": 345.66083571036415,
        "timestamp": "2025-12-02T13:52:16.065635+00:00",
        "meta_object_name": "STARLINK-35932",
        "meta_object_id": "2025-265L",
        "meta_epoch": "2025-12-02T06:00:02.999808",
        "meta_mean_motion": 15.75011447,
        "meta_eccentricity": 0.0001682,
        "meta_inclination": 42.9993,
        "meta_ra_of_asc_node": 116.3685,
        "meta_arg_of_pericenter": 265.2033,
        "meta_mean_anomaly": 238.1387,
        "meta_ephemeris_type": 0,
        "meta_classification_type": "U",
        "meta_norad_cat_id": 66526,
        "meta_element_set_no": 999,
        "meta_rev_at_epoch": 320,
        "meta_bstar": 0.00026821062,
        "meta_mean_motion_dot": 0.00040872,
        "meta_mean_motion_ddot": 0,
        "tle_line1": "1 66526U 25265L   25336.25003472  .00040872  00000+0  26821-3 0  9999",
        "tle_line2": "2 66526  42.9993 116.3685 0001682 265.2033 238.1387 15.75011447  3203"
      },
      "geometry": {
        "type": "Point",
        "coordinates": [
          -46.72934030935558,
          -16.78903055489223
        ]
      }
    }
  ]
}